ORBCOMM FM37            
1 33064U 08031E   25312.56990111  .00003132  00000+0  43325-3 0  9991
2 33064  48.4404  16.9572 0005947 276.6623 234.8650 14.80392107935436
ORBCOMM FM40            
1 33065U 08031F   25312.65806508  .00003996  00000+0  51458-3 0  9992
2 33065  48.4418 358.0768 0007034 292.0345 212.7422 14.82831815935596
VESSELSAT 1             
1 37840U 11058C   25312.61080641  .00000443  00000+0  96703-4 0  9995
2 37840  19.9627 299.9610 0013561 335.9609  24.0162 14.11387589726732
ORBCOMM FM109           
1 40086U 14040A   25312.68094248  .00001172  00000+0  28651-3 0  9996
2 40086  47.0042  53.7512 0002390 273.5517  86.5095 14.58443754602156
ORBCOMM FM107           
1 40087U 14040B   25312.70203410  .00001276  00000+0  30816-3 0  9994
2 40087  47.0060  54.5555 0001826 235.2489 124.8225 14.58522584602238
ORBCOMM FM106           
1 40088U 14040C   25312.76806186  .00002304  00000+0  41177-3 0  9995
2 40088  47.0590 224.7065 0016607  16.8071 343.3367 14.69885595604746
ORBCOMM FM111           
1 40089U 14040D   25312.63500816  .00006314  00000+0  70885-3 0  9996
2 40089  47.0012  55.7370 0029006 167.0320 193.1329 14.87362970611722
ORBCOMM FM104           
1 40090U 14040E   25312.71284785  .00001255  00000+0  31420-3 0  9992
2 40090  47.0043  89.8613 0016160 147.8572 212.3302 14.56910891601695
